{"type": "FeatureCollection", "features": [ {"type": "Feature", "properties": {"norad_id": 66545, "name": "SHIJIAN-30A", "group": "last-30-days", "lat": -22.287797322371652, "lon": -53.74984758857851, "alt_km": 515.0369795346842, "timestamp": "2025-12-14T09:36:21.778490+00:00", "meta": {"OBJECT_NAME": "SHIJIAN-30A", "OBJECT_ID": "2025-266A", "EPOCH": "2025-12-13T14:44:26.880864", "MEAN_MOTION": 15.15472855, "ECCENTRICITY": 0.00128243, "INCLINATION": 51.798, "RA_OF_ASC_NODE": 328.7655, "ARG_OF_PERICENTER": 359.6154, "MEAN_ANOMALY": 0.4811, "EPHEMERIS_TYPE": 0, "CLASSIFICATION_TYPE": "U", "NORAD_CAT_ID": 66545, "ELEMENT_SET_NO": 999, "REV_AT_EPOCH": 371, "BSTAR": 0.00061730317, "MEAN_MOTION_DOT": 0.00011558, "MEAN_MOTION_DDOT": 0}, "tle": {"line1": "1 66545U 25266A   25347.61420001  .00011558  00000+0  61730-3 0  9991", "line2": "2 66545  51.7980 328.7655 0012824 359.6154   0.4811 15.15472855  3712"}}, "geometry": {"type": "Point", "coordinates": [-53.74984758857851, -22.287797322371652]}}, {"type": "Feature", "properties": {"norad_id": 66546, "name": "SHIJIAN-30B", "group": "last-30-days", "lat": -26.95372158887834, "lon": -58.517208488495214, "alt_km": 517.5254827984327, "timestamp": "2025-12-14T09:36:21.778501+00:00", "meta": {"OBJECT_NAME": "SHIJIAN-30B", "OBJECT_ID": "2025-266B", "EPOCH": "2025-12-13T17:56:02.106240", "MEAN_MOTION": 15.15447608, "ECCENTRICITY": 0.0010559, "INCLINATION": 51.7963, "RA_OF_ASC_NODE": 328.1515, "ARG_OF_PERICENTER": 3.4052, "MEAN_ANOMALY": 356.6994, "EPHEMERIS_TYPE": 0, "CLASSIFICATION_TYPE": "U", "NORAD_CAT_ID": 66546, "ELEMENT_SET_NO": 999, "REV_AT_EPOCH": 373, "BSTAR": 0.00081627, "MEAN_MOTION_DOT": 0.00015373, "MEAN_MOTION_DDOT": 0}, "tle": {"line1": "1 66546U 25266B   25347.74724660  .00015373  00000+0  81627-3 0  9990", "line2": "2 66546  51.7963 328.1515 0010559   3.4052 356.6994 15.15447608  3735"}}, "geometry": {"type": "Point", "coordinates": [-58.517208488495214, -26.95372158887834]}}, {"type": "Feature", "properties": {"norad_id": 66547, "name": "SHIJIAN-30C", "group": "last-30-days", "lat": -28.757797142094024, "lon": -60.50903078576867, "alt_km": 516.8666643192064, "timestamp": "2025-12-14T09:36:21.778513+00:00", "meta": {"OBJECT_NAME": "SHIJIAN-30C", "OBJECT_ID": "2025-266C", "EPOCH": "2025-12-13T17:56:40.041024", "MEAN_MOTION": 15.15399325, "ECCENTRICITY": 0.0011407, "INCLINATION": 51.7973, "RA_OF_ASC_NODE": 328.156, "ARG_OF_PERICENTER": 354.9968, "MEAN_ANOMALY": 5.0893, "EPHEMERIS_TYPE": 0, "CLASSIFICATION_TYPE": "U", "NORAD_CAT_ID": 66547, "ELEMENT_SET_NO": 999, "REV_AT_EPOCH": 373, "BSTAR": 0.00072486, "MEAN_MOTION_DOT": 0.00013597, "MEAN_MOTION_DDOT": 0}, "tle": {"line1": "1 66547U 25266C   25347.74768566  .00013597  00000+0  72486-3 0  9993", "line2": "2 66547  51.7973 328.1560 0011407 354.9968   5.0893 15.15399325  3735"}}, "geometry": {"type": "Point", "coordinates": [-60.50903078576867, -28.757797142094024]}}, {"type": "Feature", "properties": {"norad_id": 66548, "name": "CZ-2C R/B", "group": "last-30-days", "lat": -11.346680750943541, "lon": 152.3760945512277, "alt_km": 421.9016581099513, "timestamp": "2025-12-14T09:36:21.778524+00:00", "meta": {"OBJECT_NAME": "CZ-2C R/B", "OBJECT_ID": "2025-266D", "EPOCH": "2025-12-13T15:31:11.841312", "MEAN_MOTION": 15.30203063, "ECCENTRICITY": 0.00838689, "INCLINATION": 52.0545, "RA_OF_ASC_NODE": 326.9594, "ARG_OF_PERICENTER": 176.1433, "MEAN_ANOMALY": 184.0217, "EPHEMERIS_TYPE": 0, "CLASSIFICATION_TYPE": "U", "NORAD_CAT_ID": 66548, "ELEMENT_SET_NO": 999, "REV_AT_EPOCH": 375, "BSTAR": 0.00039735651, "MEAN_MOTION_DOT": 0.00012738, "MEAN_MOTION_DDOT": 0}, "tle": {"line1": "1 66548U 25266D   25347.64666483  .00012738  00000+0  39736-3 0  9995", "line2": "2 66548  52.0545 326.9594 0083868 176.1433 184.0217 15.30203063  3759"}}, "geometry": {"type": "Point", "coordinates": [152.3760945512277, -11.346680750943541]}}, {"type": "Feature", "properties": {"norad_id": 66549, "name": "SHIJIAN-28", "group": "last-30-days", "lat": 4.698444116888826, "lon": -15.837044344759693, "alt_km": 35783.95446878383, "timestamp": "2025-12-14T09:36:21.778536+00:00", "meta": {"OBJECT_NAME": "SHIJIAN-28", "OBJECT_ID": "2025-277A", "EPOCH": "2025-12-13T17:25:42.898080", "MEAN_MOTION": 1.0027198, "ECCENTRICITY": 8.35e-05, "INCLINATION": 5.0159, "RA_OF_ASC_NODE": 274.9409, "ARG_OF_PERICENTER": 132.6511, "MEAN_ANOMALY": 53.348, "EPHEMERIS_TYPE": 0, "CLASSIFICATION_TYPE": "U", "NORAD_CAT_ID": 66549, "ELEMENT_SET_NO": 999, "REV_AT_EPOCH": 29, "BSTAR": 0, "MEAN_MOTION_DOT": -3.43e-06, "MEAN_MOTION_DDOT": 0}, "tle": {"line1": "1 66549U 25277A   25347.72619095 -.00000343  00000+0  00000+0 0  9992", "line2": "2 66549   5.0159 274.9409 0000835 132.6511  53.3480  1.00271980   294"}}, "geometry": {"type": "Point", "coordinates": [-15.837044344759693, 4.698444116888826]}}, {"type": "Feature", "properties": {"norad_id": 66550, "name": "CZ-7A R/B", "group": "last-30-days", "lat": -4.922602251887452, "lon": -110.53798876489546, "alt_km": 21196.845332190027, "timestamp": "2025-12-14T09:36:21.778549+00:00", "meta": {"OBJECT_NAME": "CZ-7A R/B", "OBJECT_ID": "2025-277B", "EPOCH": "2025-12-12T23:59:46.063680", "MEAN_MOTION": 2.69999213, "ECCENTRICITY": 0.70164962, "INCLINATION": 14.3833, "RA_OF_ASC_NODE": 269.7494, "ARG_OF_PERICENTER": 189.2871, "MEAN_ANOMALY": 143.2042, "EPHEMERIS_TYPE": 0, "CLASSIFICATION_TYPE": "U", "NORAD_CAT_ID": 66550, "ELEMENT_SET_NO": 999, "REV_AT_EPOCH": 35, "BSTAR": 0.0022608485, "MEAN_MOTION_DOT": 0.01807848, "MEAN_MOTION_DDOT": -2.55676e-07}, "tle": {"line1": "1 66550U 25277B   25346.99983870  .01807848 -25568-6  22608-2 0  9997", "line2": "2 66550  14.3833 269.7494 7016496 189.2871 143.2042  2.69999213   350"}}, "geometry": {"type": "Point", "coordinates": [-110.53798876489546, -4.922602251887452]}}, {"type": "Feature", "properties": {"norad_id": 66551, "name": "USA 568", "group": "last-30-days", "lat": 47.06522505222914, "lon": -54.269002734210886, "alt_km": 58.84954117909365, "timestamp": "2025-12-14T09:36:21.778561+00:00", "meta": {"OBJECT_NAME": "USA 568", "OBJECT_ID": "2024-134K", "EPOCH": "2025-12-02T16:00:03.000096", "MEAN_MOTION": 15.87051116, "ECCENTRICITY": 7.17e-05, "INCLINATION": 53.1571, "RA_OF_ASC_NODE": 236.7807, "ARG_OF_PERICENTER": 110.7411, "MEAN_ANOMALY": 313.9012, "EPHEMERIS_TYPE": 0, "CLASSIFICATION_TYPE": "U", "NORAD_CAT_ID": 66551, "ELEMENT_SET_NO": 999, "REV_AT_EPOCH": 262, "BSTAR": -0.0074303, "MEAN_MOTION_DOT": -0.01709685, "MEAN_MOTION_DDOT": 0}, "tle": {"line1": "1 66551U 24134K   25336.66670139 -.01709685  00000+0 -74303-2 0  9990", "line2": "2 66551  53.1571 236.7807 0000717 110.7411 313.9012 15.87051116  2624"}}, "geometry": {"type": "Point", "coordinates": [-54.269002734210886, 47.06522505222914]}}, {"type": "Feature", "properties": {"norad_id": 66554, "name": "GLOBAL-33", "group": "last-30-days", "lat": -29.593663095066916, "lon": -93.49312189787355, "alt_km": 476.14328488178035, "timestamp": "2025-12-14T09:36:21.778571+00:00", "meta": {"OBJECT_NAME": "GLOBAL-33", "OBJECT_ID": "2025-267A", "EPOCH": "2025-12-13T04:26:51.362016", "MEAN_MOTION": 15.31634197, "ECCENTRICITY": 0.00041642, "INCLINATION": 42.0219, "RA_OF_ASC_NODE": 54.4209, "ARG_OF_PERICENTER": 57.7064, "MEAN_ANOMALY": 302.4176, "EPHEMERIS_TYPE": 0, "CLASSIFICATION_TYPE": "U", "NORAD_CAT_ID": 66554, "ELEMENT_SET_NO": 999, "REV_AT_EPOCH": 347, "BSTAR": 0.00030878268, "MEAN_MOTION_DOT": 9.397e-05, "MEAN_MOTION_DDOT": 0}, "tle": {"line1": "1 66554U 25267A   25347.18531669  .00009397  00000+0  30878-3 0  9994", "line2": "2 66554  42.0219  54.4209 0004164  57.7064 302.4176 15.31634197  3471"}}, "geometry": {"type": "Point", "coordinates": [-93.49312189787355, -29.593663095066916]}}, {"type": "Feature", "properties": {"norad_id": 66555, "name": "ELECTRON KICK STAGE R/B", "group": "last-30-days", "lat": -35.40666516767026, "lon": -4.907490191048288, "alt_km": 472.61641235739353, "timestamp": "2025-12-14T09:36:21.778584+00:00", "meta": {"OBJECT_NAME": "ELECTRON KICK STAGE R/B", "OBJECT_ID": "2025-267B", "EPOCH": "2025-12-13T15:06:07.398720", "MEAN_MOTION": 15.32870715, "ECCENTRICITY": 0.00065202, "INCLINATION": 42.0199, "RA_OF_ASC_NODE": 51.69, "ARG_OF_PERICENTER": 60.1981, "MEAN_ANOMALY": 299.9504, "EPHEMERIS_TYPE": 0, "CLASSIFICATION_TYPE": "U", "NORAD_CAT_ID": 66555, "ELEMENT_SET_NO": 999, "REV_AT_EPOCH": 354, "BSTAR": 0.00089210302, "MEAN_MOTION_DOT": 0.00028816, "MEAN_MOTION_DDOT": 0}, "tle": {"line1": "1 66555U 25267B   25347.62925230  .00028816  00000+0  89210-3 0  9996", "line2": "2 66555  42.0199  51.6900 0006520  60.1981 299.9504 15.32870715  3542"}}, "geometry": {"type": "Point", "coordinates": [-4.907490191048288, -35.40666516767026]}}, {"type": "Feature", "properties": {"norad_id": 66557, "name": "STARLINK-35699", "group": "last-30-days", "lat": 12.842845996952551, "lon": 125.64787396936092, "alt_km": 412.60180163940095, "timestamp": "2025-12-14T09:36:21.778594+00:00", "meta": {"OBJECT_NAME": "STARLINK-35699", "OBJECT_ID": "2025-268A", "EPOCH": "2025-12-13T16:31:11.063136", "MEAN_MOTION": 15.50599567, "ECCENTRICITY": 0.00017364, "INCLINATION": 42.9998, "RA_OF_ASC_NODE": 115.6521, "ARG_OF_PERICENTER": 282.9903, "MEAN_ANOMALY": 77.0763, "EPHEMERIS_TYPE": 0, "CLASSIFICATION_TYPE": "U", "NORAD_CAT_ID": 66557, "ELEMENT_SET_NO": 999, "REV_AT_EPOCH": 477, "BSTAR": 0.0014436617, "MEAN_MOTION_DOT": 0.00085343, "MEAN_MOTION_DDOT": 0}, "tle": {"line1": "1 66557U 25268A   25347.68832249  .00085343  00000+0  14437-2 0  9998", "line2": "2 66557  42.9998 115.6521 0001736 282.9903  77.0763 15.50599567  4773"}}, "geometry": {"type": "Point", "coordinates": [125.64787396936092, 12.842845996952551]}}]}